HIMAWARI-8              
1 40267U 14060A   23225.53467285 -.00000283  00000+0  00000+0 0  9996
2 40267   0.0495 271.2115 0000592 263.4885 120.1284  1.00273810 32443
